{
  "type": "FeatureCollection",
  "features": [
    {
      "type": "Feature",
      "properties": {
        "name": "Unakoti & North Tripura Dense District Outline (Approximate)",
        "note": "Calibrated from town and border coordinates"
      },
      "geometry": {
        "type": "Polygon",
        "coordinates": [
          [
            [
              92.245,
              24.485
            ],
            [
              92.195,
              24.475
            ],
            [
              92.155,
              24.445
            ],
            [
              92.045,
              24.385
            ],
            [
              91.98,
              24.34
            ],
            [
              91.97,
              24.28
            ],
            [
              91.985,
              24.2
            ],
            [
              92.01,
              24.15
            ],
            [
              92.065,
              24.1
            ],
            [
              92.11,
              24.02
            ],
            [
              92.14,
              23.94
            ],
            [
              92.18,
              23.87
            ],
            [
              92.26,
              23.8
            ],
            [
              92.29,
              23.85
            ],
            [
              92.315,
              23.95
            ],
            [
              92.33,
              24.05
            ],
            [
              92.34,
              24.14
            ],
            [
              92.29,
              24.22
            ],
            [
              92.24,
              24.29
            ],
            [
              92.235,
              24.38
            ],
            [
              92.26,
              24.44
            ],
            [
              92.245,
              24.485
            ]
          ]
        ]
      }
    },
    {
      "type": "Feature",
      "properties": {
        "name": "LLA 6-Vertex Convex Bounding Hexagon",
        "area_km2": 3045.75,
        "min_buffer_km": 5.2
      },
      "geometry": {
        "type": "Polygon",
        "coordinates": [
          [
            [
              92.257687,
              24.558873
            ],
            [
              91.93224,
              24.399949
            ],
            [
              91.909983,
              24.205469
            ],
            [
              92.212839,
              23.723708
            ],
            [
              92.351918,
              23.791624
            ],
            [
              92.411688,
              24.313899
            ],
            [
              92.257687,
              24.558873
            ]
          ]
        ]
      }
    }
  ]
}