{
  "type": "FeatureCollection",
  "features": [
    {
      "type": "Feature",
      "properties": {
        "name": "Tight LLA Geofence Boundary"
      },
      "geometry": {
        "type": "Polygon",
        "coordinates": [
          [
            [
              92.257687,
              24.558873
            ],
            [
              91.93224,
              24.399949
            ],
            [
              91.909983,
              24.205469
            ],
            [
              92.212839,
              23.723708
            ],
            [
              92.351918,
              23.791624
            ],
            [
              92.411688,
              24.313899
            ],
            [
              92.257687,
              24.558873
            ]
          ]
        ]
      }
    },
    {
      "type": "Feature",
      "properties": {
        "id": "Z01",
        "q": 0,
        "r": -2,
        "center": [
          23.686696,
          92.186922
        ],
        "name": "Zone Z01"
      },
      "geometry": {
        "type": "Polygon",
        "coordinates": [
          [
            [
              92.322813,
              23.686696
            ],
            [
              92.254868,
              23.794779
            ],
            [
              92.118977,
              23.794779
            ],
            [
              92.051031,
              23.686696
            ],
            [
              92.118977,
              23.578613
            ],
            [
              92.254868,
              23.578613
            ],
            [
              92.322813,
              23.686696
            ]
          ]
        ]
      }
    },
    {
      "type": "Feature",
      "properties": {
        "id": "Z02",
        "q": 1,
        "r": -2,
        "center": [
          23.794779,
          92.390759
        ],
        "name": "Zone Z02"
      },
      "geometry": {
        "type": "Polygon",
        "coordinates": [
          [
            [
              92.52665,
              23.794779
            ],
            [
              92.458704,
              23.902862
            ],
            [
              92.322813,
              23.902862
            ],
            [
              92.254868,
              23.794779
            ],
            [
              92.322813,
              23.686696
            ],
            [
              92.458704,
              23.686696
            ],
            [
              92.52665,
              23.794779
            ]
          ]
        ]
      }
    },
    {
      "type": "Feature",
      "properties": {
        "id": "Z03",
        "q": 0,
        "r": -1,
        "center": [
          23.902862,
          92.186922
        ],
        "name": "Zone Z03"
      },
      "geometry": {
        "type": "Polygon",
        "coordinates": [
          [
            [
              92.322813,
              23.902862
            ],
            [
              92.254868,
              24.010945
            ],
            [
              92.118977,
              24.010945
            ],
            [
              92.051031,
              23.902862
            ],
            [
              92.118977,
              23.794779
            ],
            [
              92.254868,
              23.794779
            ],
            [
              92.322813,
              23.902862
            ]
          ]
        ]
      }
    },
    {
      "type": "Feature",
      "properties": {
        "id": "Z04",
        "q": 1,
        "r": -1,
        "center": [
          24.010945,
          92.390759
        ],
        "name": "Zone Z04"
      },
      "geometry": {
        "type": "Polygon",
        "coordinates": [
          [
            [
              92.52665,
              24.010945
            ],
            [
              92.458704,
              24.119027
            ],
            [
              92.322813,
              24.119027
            ],
            [
              92.254868,
              24.010945
            ],
            [
              92.322813,
              23.902862
            ],
            [
              92.458704,
              23.902862
            ],
            [
              92.52665,
              24.010945
            ]
          ]
        ]
      }
    },
    {
      "type": "Feature",
      "properties": {
        "id": "Z05",
        "q": -1,
        "r": 0,
        "center": [
          24.010945,
          91.983086
        ],
        "name": "Zone Z05"
      },
      "geometry": {
        "type": "Polygon",
        "coordinates": [
          [
            [
              92.118977,
              24.010945
            ],
            [
              92.051031,
              24.119027
            ],
            [
              91.91514,
              24.119027
            ],
            [
              91.847195,
              24.010945
            ],
            [
              91.91514,
              23.902862
            ],
            [
              92.051031,
              23.902862
            ],
            [
              92.118977,
              24.010945
            ]
          ]
        ]
      }
    },
    {
      "type": "Feature",
      "properties": {
        "id": "Z06",
        "q": 0,
        "r": 0,
        "center": [
          24.119027,
          92.186922
        ],
        "name": "Zone Z06"
      },
      "geometry": {
        "type": "Polygon",
        "coordinates": [
          [
            [
              92.322813,
              24.119027
            ],
            [
              92.254868,
              24.22711
            ],
            [
              92.118977,
              24.22711
            ],
            [
              92.051031,
              24.119027
            ],
            [
              92.118977,
              24.010945
            ],
            [
              92.254868,
              24.010945
            ],
            [
              92.322813,
              24.119027
            ]
          ]
        ]
      }
    },
    {
      "type": "Feature",
      "properties": {
        "id": "Z07",
        "q": 1,
        "r": 0,
        "center": [
          24.22711,
          92.390759
        ],
        "name": "Zone Z07"
      },
      "geometry": {
        "type": "Polygon",
        "coordinates": [
          [
            [
              92.52665,
              24.22711
            ],
            [
              92.458704,
              24.335193
            ],
            [
              92.322813,
              24.335193
            ],
            [
              92.254868,
              24.22711
            ],
            [
              92.322813,
              24.119027
            ],
            [
              92.458704,
              24.119027
            ],
            [
              92.52665,
              24.22711
            ]
          ]
        ]
      }
    },
    {
      "type": "Feature",
      "properties": {
        "id": "Z08",
        "q": -1,
        "r": 1,
        "center": [
          24.22711,
          91.983086
        ],
        "name": "Zone Z08"
      },
      "geometry": {
        "type": "Polygon",
        "coordinates": [
          [
            [
              92.118977,
              24.22711
            ],
            [
              92.051031,
              24.335193
            ],
            [
              91.91514,
              24.335193
            ],
            [
              91.847195,
              24.22711
            ],
            [
              91.91514,
              24.119027
            ],
            [
              92.051031,
              24.119027
            ],
            [
              92.118977,
              24.22711
            ]
          ]
        ]
      }
    },
    {
      "type": "Feature",
      "properties": {
        "id": "Z09",
        "q": 0,
        "r": 1,
        "center": [
          24.335193,
          92.186922
        ],
        "name": "Zone Z09"
      },
      "geometry": {
        "type": "Polygon",
        "coordinates": [
          [
            [
              92.322813,
              24.335193
            ],
            [
              92.254868,
              24.443276
            ],
            [
              92.118977,
              24.443276
            ],
            [
              92.051031,
              24.335193
            ],
            [
              92.118977,
              24.22711
            ],
            [
              92.254868,
              24.22711
            ],
            [
              92.322813,
              24.335193
            ]
          ]
        ]
      }
    },
    {
      "type": "Feature",
      "properties": {
        "id": "Z10",
        "q": 1,
        "r": 1,
        "center": [
          24.443276,
          92.390759
        ],
        "name": "Zone Z10"
      },
      "geometry": {
        "type": "Polygon",
        "coordinates": [
          [
            [
              92.52665,
              24.443276
            ],
            [
              92.458704,
              24.551359
            ],
            [
              92.322813,
              24.551359
            ],
            [
              92.254868,
              24.443276
            ],
            [
              92.322813,
              24.335193
            ],
            [
              92.458704,
              24.335193
            ],
            [
              92.52665,
              24.443276
            ]
          ]
        ]
      }
    },
    {
      "type": "Feature",
      "properties": {
        "id": "Z11",
        "q": -1,
        "r": 2,
        "center": [
          24.443276,
          91.983086
        ],
        "name": "Zone Z11"
      },
      "geometry": {
        "type": "Polygon",
        "coordinates": [
          [
            [
              92.118977,
              24.443276
            ],
            [
              92.051031,
              24.551359
            ],
            [
              91.91514,
              24.551359
            ],
            [
              91.847195,
              24.443276
            ],
            [
              91.91514,
              24.335193
            ],
            [
              92.051031,
              24.335193
            ],
            [
              92.118977,
              24.443276
            ]
          ]
        ]
      }
    },
    {
      "type": "Feature",
      "properties": {
        "id": "Z12",
        "q": 0,
        "r": 2,
        "center": [
          24.551359,
          92.186922
        ],
        "name": "Zone Z12"
      },
      "geometry": {
        "type": "Polygon",
        "coordinates": [
          [
            [
              92.322813,
              24.551359
            ],
            [
              92.254868,
              24.659441
            ],
            [
              92.118977,
              24.659441
            ],
            [
              92.051031,
              24.551359
            ],
            [
              92.118977,
              24.443276
            ],
            [
              92.254868,
              24.443276
            ],
            [
              92.322813,
              24.551359
            ]
          ]
        ]
      }
    }
  ]
}